GSAT0222 (PRN E33)      
1 43565U 18060B   22358.15479084 -.00000065  00000+0  00000+0 0  9996
2 43565  57.2340  16.0566 0005065 279.8684  80.1256  1.70475733 27547
GSAT0219 (PRN E36)      
1 43566U 18060C   22357.20216739 -.00000061  00000+0  00000+0 0  9994
2 43566  57.2343  16.0847 0004727 280.2208  79.7810  1.70475730 27508
GSAT0220 (PRN E13)      
1 43567U 18060D   22352.14316629 -.00000059  00000+0  00000+0 0  9999
2 43567  57.2326  16.2230 0004986 275.3211  84.6809  1.70475846 27404
BEIDOU-3 M9 (C23)       
1 43581U 18062A   22357.93146201  .00000084  00000+0  00000+0 0  9993
2 43581  54.2268 225.6037 0003084 312.0182 269.4055  1.86231986 29957
BEIDOU-3 M10 (C24)      
1 43582U 18062B   22357.65763766  .00000088  00000+0  00000+0 0  9998
2 43582  54.2257 225.6020 0006672  18.4134 111.3861  1.86231617 29959
BEIDOU-3 M11 (C25)      
1 43602U 18067A   22357.12227066  .00000095  00000+0  00000+0 0  9994
2 43602  54.3105 224.2525 0007957  16.5978 155.2369  1.86231564 29436
BEIDOU-3 M12 (C26)      
1 43603U 18067B   22357.95238564  .00000086  00000+0  00000+0 0  9991
2 43603  54.3076 224.1903 0004916  11.5988 267.1315  1.86231526 29466
BEIDOU-3 M13 (C32)      
1 43622U 18072A   22357.58180034 -.00000008  00000+0  00000+0 0  9990
2 43622  55.5978 105.0050 0004958 275.3038 143.6869  1.86231398 28977
BEIDOU-3 M14 (C33)      
1 43623U 18072B   22358.43726017 -.00000005  00000+0  00000+0 0  9990
2 43623  55.5998 104.9681 0002223 313.8893  48.8902  1.86231435 28996
BEIDOU-3 M15 (C34)      
1 43647U 18078A   22358.04663535 -.00000072  00000+0  10000-3 0  9993
2 43647  55.0441 344.0844 0009266   2.4613 354.1946  1.86223049 28480
BEIDOU-3 M16 (C35)      
1 43648U 18078B   22358.47757705 -.00000073  00000+0  00000+0 0  9990
2 43648  55.0424 344.0773 0003938 354.4439 198.6523  1.86232269 28519
BEIDOU-3 G1 (C59)       
1 43683U 18085A   22358.22132583 -.00000265  00000+0  00000+0 0  9994
2 43683   1.0292 148.6028 0003578 188.4304 335.4661  1.00269502 15302
COSMOS 2529 (757)       
1 43687U 18086A   22358.18826020  .00000074  00000+0  00000+0 0  9997
2 43687  64.3378 235.6801 0008441 270.9724 265.1925  2.13102188 32207
BEIDOU-3 M17 (C36)      
1 43706U 18093A   22357.26583400  .00000092  00000+0  00000+0 0  9997
2 43706  54.3081 225.5250 0007429 290.6606  69.3624  1.86231828 27856
BEIDOU-3 M18 (C37)      
1 43707U 18093B   22358.54432843  .00000077  00000+0  00000+0 0  9997
2 43707  54.3089 225.4725 0007481 322.1654 266.4413  1.86232344 27864
GPS BIII-1  (PRN 04)    
1 43873U 18109A   22357.89148139  .00000047  00000+0  00000+0 0  9995
2 43873  55.1295 142.4159 0022621 188.1627 356.2590  2.00557034 29575
BEIDOU-3 IGSO-1 (C38)   
1 44204U 19023A   22357.65624789 -.00000220  00000+0  00000+0 0  9998
2 44204  56.8358  50.9510 0024142 196.0683 197.8460  1.00252647 13610
BEIDOU-2 G8             
1 44231U 19027A   22358.59840825 -.00000238  00000+0  00000+0 0  9996
2 44231   1.3239  80.3489 0005635 137.7081 234.9201  1.00266687 13339
COSMOS 2534 (758)       
1 44299U 19030A   22357.55188552  .00000079  00000+0  00000+0 0  9993
2 44299  64.4106 235.6050 0011342 292.8892 249.4564  2.13101933 27830
BEIDOU-3 IGSO-2 (C39)   
1 44337U 19035A   22356.14825057 -.00000041  00000+0  00000+0 0  9993
2 44337  55.1343 170.0558 0025912 188.3276 261.1361  1.00246451 12932
GPS BIII-2  (PRN 18)    
1 44506U 19056A   22357.50366726 -.00000061  00000+0  00000+0 0  9990
2 44506  55.7536  21.5396 0029848 186.0338 338.9947  2.00559820 24558
BEIDOU-3 M23 (C45)      
1 44542U 19061A   22357.20237255  .00000093  00000+0  00000+0 0  9991
2 44542  54.5349 225.7063 0008909 358.6994   1.4013  1.86231416 22102
BEIDOU-3 M24 (C46)      
1 44543U 19061B   22358.15968139  .00000082  00000+0  00000+0 0  9997
2 44543  54.5326 225.6442 0005852 354.0390 199.4371  1.86231938 22117
BEIDOU-3 IGSO-3         
1 44709U 19073A   22357.95428905 -.00000197  00000+0  10000-3 0  9996
2 44709  56.9616 294.4126 0025858 182.7113  75.5909  1.00251544 11692
BEIDOU-3 M21            
1 44793U 19078A   22358.39496631 -.00000073  00000+0  10000-3 0  9997
2 44793  54.8953 344.0732 0006113 358.9093 184.9816  1.86232296 20989
BEIDOU-3 M22            
1 44794U 19078B   22357.16646503 -.00000069  00000+0  00000+0 0  9997
2 44794  54.8697 344.1036 0004283 346.0918   6.1374  1.86232721 20957
COSMOS 2544 (759)       
1 44850U 19088A   22358.27311546  .00000020  00000+0  16595+1 0  9993
2 44850  65.0022 116.3211 0011450 250.2588 110.8243  2.13102300 23628
BEIDOU-3 M19            
1 44864U 19090A   22358.49253912 -.00000005  00000+0  00000+0 0  9994
2 44864  55.5323 105.1748 0015911 267.1791  88.3905  1.86231795 20565
BEIDOU-3 M20            
1 44865U 19090B   22357.37363767 -.00000008  00000+0  00000+0 0  9994
2 44865  55.5336 105.2445 0013672 281.6533 133.5778  1.86231698 20521
BEIDOU-3 G2             
1 45344U 20017A   22357.77813428 -.00000127  00000+0  00000+0 0  9998
2 45344   1.9925   2.1691 0001458 210.6340 239.6333  1.00269519 10510
COSMOS 2545 (760)       
1 45358U 20018A   22357.52619012 -.00000041  00000+0  00000+0 0  9995
2 45358  64.8994 356.7544 0011620 250.8302 106.4866  2.13102751 21557
BEIDOU-3 G3             
1 45807U 20040A   22358.07108388 -.00000339  00000+0  00000+0 0  9999
2 45807   1.0281 311.4914 0008286 340.4317 296.8184  1.00272956  9332
GPS BIII-3  (PRN 23)    
1 45854U 20041A   22358.53671644 -.00000033  00000+0  00000+0 0  9994
2 45854  55.6716  78.7696 0029552 183.6725 307.8024  2.00567146 18549
GALAXY 30 (WAAS/PRN 135)
1 46114U 20056C   22355.47767817  .00000062  00000+0  00000+0 0  9999
2 46114   0.0181  12.6268 0001832 248.9222 235.4366  1.00269558  8526
GPS BIII-4  (PRN 14)    
1 46826U 20078A   22358.14550720  .00000022  00000+0  00000+0 0  9999
2 46826  54.4488 262.3955 0025009 189.7478 355.6140  2.00564725 16005
GPS BIII-5  (PRN 11)    
1 48859U 21054A   22357.63241837 -.00000062  00000+0  00000+0 0  9996
2 48859  55.2642  23.4418 0009141 215.1664 144.2739  2.00562429 11240
